GLOBAL-2                
1 43812U 18099BG  26068.69955396  .00003970  00000+0  26145-3 0  9998
2 43812  97.3697 109.3280 0007454 127.1924 232.9986 15.08046936396919
STARLINK-3618           
1 51998U 22025AU  26068.10197459 -.00001645  00000+0 -85335-4 0  9996
2 51998  53.2200  21.7591 0001488  91.3323 268.7840 15.08829830220837
